{"type": "FeatureCollection", "features": [{"type": "Feature", "properties": {"NAME": "Fiji"}, "geometry": {"type": "Point", "coordinates": [177.975427, -17.826099]}}, {"type": "Feature", "properties": {"NAME": "Tanzania"}, "geometry": {"type": "Point", "coordinates": [34.959183, -6.051866]}}, {"type": "Feature", "properties": {"NAME": "W. Sahara"}, "geometry": {"type": "Point", "coordinates": [-12.630304, 23.967592]}}, {"type": "Feature", "properties": {"NAME": "Canada"}, "geometry": {"type": "Point", "coordinates": [-101.9107, 60.324287]}}, {"type": "Feature", "properties": {"NAME": "United States of America"}, "geometry": {"type": "Point", "coordinates": [-97.482602, 39.538479]}}, {"type": "Feature", "properties": {"NAME": "Kazakhstan"}, "geometry": {"type": "Point", "coordinates": [68.685548, 49.054149]}}, {"type": "Feature", "properties": {"NAME": "Uzbekistan"}, "geometry": {"type": "Point", "coordinates": [64.005429, 41.693603]}}, {"type": "Feature", "properties": {"NAME": "Papua New Guinea"}, "geometry": {"type": "Point", "coordinates": [143.910216, -5.695285]}}, {"type": "Feature", "properties": {"NAME": "Indonesia"}, "geometry": {"type": "Point", "coordinates": [101.892949, -0.954404]}}, {"type": "Feature", "properties": {"NAME": "Argentina"}, "geometry": {"type": "Point", "coordinates": [-64.173331, -33.501159]}}, {"type": "Feature", "properties": {"NAME": "Chile"}, "geometry": {"type": "Point", "coordinates": [-72.318871, -38.151771]}}, {"type": "Feature", "properties": {"NAME": "Dem. Rep. Congo"}, "geometry": {"type": "Point", "coordinates": [23.458829, -1.858167]}}, {"type": "Feature", "properties": {"NAME": "Somalia"}, "geometry": {"type": "Point", "coordinates": [45.19238, 3.568925]}}, {"type": "Feature", "properties": {"NAME": "Kenya"}, "geometry": {"type": "Point", "coordinates": [37.907632, 0.549043]}}, {"type": "Feature", "properties": {"NAME": "Sudan"}, "geometry": {"type": "Point", "coordinates": [29.260657, 16.330746]}}, {"type": "Feature", "properties": {"NAME": "Chad"}, "geometry": {"type": "Point", "coordinates": [18.645041, 15.142959]}}, {"type": "Feature", "properties": {"NAME": "Haiti"}, "geometry": {"type": "Point", "coordinates": [-72.224051, 19.263784]}}, {"type": "Feature", "properties": {"NAME": "Dominican Rep."}, "geometry": {"type": "Point", "coordinates": [-70.653998, 19.104137]}}, {"type": "Feature", "properties": {"NAME": "Russia"}, "geometry": {"type": "Point", "coordinates": [44.686469, 58.249357]}}, {"type": "Feature", "properties": {"NAME": "Bahamas"}, "geometry": {"type": "Point", "coordinates": [-77.146688, 26.401789]}}, {"type": "Feature", "properties": {"NAME": "Falkland Is."}, "geometry": {"type": "Point", "coordinates": [-58.738602, -51.608913]}}, {"type": "Feature", "properties": {"NAME": "Norway"}, "geometry": {"type": "Point", "coordinates": [9.679975, 61.357092]}}, {"type": "Feature", "properties": {"NAME": "Greenland"}, "geometry": {"type": "Point", "coordinates": [-39.335251, 74.319387]}}, {"type": "Feature", "properties": {"NAME": "Fr. S. Antarctic Lands"}, "geometry": {"type": "Point", "coordinates": [69.122136, -49.303721]}}, {"type": "Feature", "properties": {"NAME": "Timor-Leste"}, "geometry": {"type": "Point", "coordinates": [125.854679, -8.803705]}}, {"type": "Feature", "properties": {"NAME": "South Africa"}, "geometry": {"type": "Point", "coordinates": [23.665734, -29.708776]}}, {"type": "Feature", "properties": {"NAME": "Lesotho"}, "geometry": {"type": "Point", "coordinates": [28.246639, -29.480158]}}, {"type": "Feature", "properties": {"NAME": "Mexico"}, "geometry": {"type": "Point", "coordinates": [-102.289448, 23.919988]}}, {"type": "Feature", "properties": {"NAME": "Uruguay"}, "geometry": {"type": "Point", "coordinates": [-55.966942, -32.961127]}}, {"type": "Feature", "properties": {"NAME": "Brazil"}, "geometry": {"type": "Point", "coordinates": [-49.55945, -12.098687]}}, {"type": "Feature", "properties": {"NAME": "Bolivia"}, "geometry": {"type": "Point", "coordinates": [-64.593433, -16.666015]}}, {"type": "Feature", "properties": {"NAME": "Peru"}, "geometry": {"type": "Point", "coordinates": [-72.90016, -12.976679]}}, {"type": "Feature", "properties": {"NAME": "Colombia"}, "geometry": {"type": "Point", "coordinates": [-73.174347, 3.373111]}}, {"type": "Feature", "properties": {"NAME": "Panama"}, "geometry": {"type": "Point", "coordinates": [-80.352106, 8.72198]}}, {"type": "Feature", "properties": {"NAME": "Costa Rica"}, "geometry": {"type": "Point", "coordinates": [-84.077922, 10.0651]}}, {"type": "Feature", "properties": {"NAME": "Nicaragua"}, "geometry": {"type": "Point", "coordinates": [-85.069347, 12.670697]}}, {"type": "Feature", "properties": {"NAME": "Honduras"}, "geometry": {"type": "Point", "coordinates": [-86.887604, 14.794801]}}, {"type": "Feature", "properties": {"NAME": "El Salvador"}, "geometry": {"type": "Point", "coordinates": [-88.890124, 13.685371]}}, {"type": "Feature", "properties": {"NAME": "Guatemala"}, "geometry": {"type": "Point", "coordinates": [-90.497134, 14.982133]}}, {"type": "Feature", "properties": {"NAME": "Belize"}, "geometry": {"type": "Point", "coordinates": [-88.712962, 17.202068]}}, {"type": "Feature", "properties": {"NAME": "Venezuela"}, "geometry": {"type": "Point", "coordinates": [-64.599381, 7.182476]}}, {"type": "Feature", "properties": {"NAME": "Guyana"}, "geometry": {"type": "Point", "coordinates": [-58.942643, 5.124317]}}, {"type": "Feature", "properties": {"NAME": "Suriname"}, "geometry": {"type": "Point", "coordinates": [-55.91094, 4.143987]}}, {"type": "Feature", "properties": {"NAME": "France"}, "geometry": {"type": "Point", "coordinates": [2.552275, 46.696113]}}, {"type": "Feature", "properties": {"NAME": "Ecuador"}, "geometry": {"type": "Point", "coordinates": [-78.188375, -1.259076]}}, {"type": "Feature", "properties": {"NAME": "Puerto Rico"}, "geometry": {"type": "Point", "coordinates": [-66.481065, 18.234668]}}, {"type": "Feature", "properties": {"NAME": "Jamaica"}, "geometry": {"type": "Point", "coordinates": [-77.318767, 18.137124]}}, {"type": "Feature", "properties": {"NAME": "Cuba"}, "geometry": {"type": "Point", "coordinates": [-77.975855, 21.334024]}}, {"type": "Feature", "properties": {"NAME": "Zimbabwe"}, "geometry": {"type": "Point", "coordinates": [29.925444, -18.91164]}}, {"type": "Feature", "properties": {"NAME": "Botswana"}, "geometry": {"type": "Point", "coordinates": [24.179216, -22.102634]}}, {"type": "Feature", "properties": {"NAME": "Namibia"}, "geometry": {"type": "Point", "coordinates": [17.108166, -20.575298]}}, {"type": "Feature", "properties": {"NAME": "Senegal"}, "geometry": {"type": "Point", "coordinates": [-14.778586, 15.138125]}}, {"type": "Feature", "properties": {"NAME": "Mali"}, "geometry": {"type": "Point", "coordinates": [-2.038455, 18.692713]}}, {"type": "Feature", "properties": {"NAME": "Mauritania"}, "geometry": {"type": "Point", "coordinates": [-9.740299, 19.587062]}}, {"type": "Feature", "properties": {"NAME": "Benin"}, "geometry": {"type": "Point", "coordinates": [2.352018, 10.324775]}}, {"type": "Feature", "properties": {"NAME": "Niger"}, "geometry": {"type": "Point", "coordinates": [9.504356, 17.446195]}}, {"type": "Feature", "properties": {"NAME": "Nigeria"}, "geometry": {"type": "Point", "coordinates": [7.50322, 9.439799]}}, {"type": "Feature", "properties": {"NAME": "Cameroon"}, "geometry": {"type": "Point", "coordinates": [12.473488, 4.585041]}}, {"type": "Feature", "properties": {"NAME": "Togo"}, "geometry": {"type": "Point", "coordinates": [1.058113, 8.80722]}}, {"type": "Feature", "properties": {"NAME": "Ghana"}, "geometry": {"type": "Point", "coordinates": [-1.036941, 7.717639]}}, {"type": "Feature", "properties": {"NAME": "C\u00f4te d'Ivoire"}, "geometry": {"type": "Point", "coordinates": [-5.568618, 7.49139]}}, {"type": "Feature", "properties": {"NAME": "Guinea"}, "geometry": {"type": "Point", "coordinates": [-10.016402, 10.618516]}}, {"type": "Feature", "properties": {"NAME": "Guinea-Bissau"}, "geometry": {"type": "Point", "coordinates": [-14.52413, 12.163712]}}, {"type": "Feature", "properties": {"NAME": "Liberia"}, "geometry": {"type": "Point", "coordinates": [-9.460379, 6.447177]}}, {"type": "Feature", "properties": {"NAME": "Sierra Leone"}, "geometry": {"type": "Point", "coordinates": [-11.763677, 8.617449]}}, {"type": "Feature", "properties": {"NAME": "Burkina Faso"}, "geometry": {"type": "Point", "coordinates": [-1.36388, 12.673048]}}, {"type": "Feature", "properties": {"NAME": "Central African Rep."}, "geometry": {"type": "Point", "coordinates": [20.906897, 6.989681]}}, {"type": "Feature", "properties": {"NAME": "Congo"}, "geometry": {"type": "Point", "coordinates": [15.9005, 0.142331]}}, {"type": "Feature", "properties": {"NAME": "Gabon"}, "geometry": {"type": "Point", "coordinates": [11.835939, -0.437739]}}, {"type": "Feature", "properties": {"NAME": "Eq. Guinea"}, "geometry": {"type": "Point", "coordinates": [8.9902, 2.333]}}, {"type": "Feature", "properties": {"NAME": "Zambia"}, "geometry": {"type": "Point", "coordinates": [26.395298, -14.660804]}}, {"type": "Feature", "properties": {"NAME": "Malawi"}, "geometry": {"type": "Point", "coordinates": [33.608082, -13.386737]}}, {"type": "Feature", "properties": {"NAME": "Mozambique"}, "geometry": {"type": "Point", "coordinates": [37.83789, -13.94323]}}, {"type": "Feature", "properties": {"NAME": "eSwatini"}, "geometry": {"type": "Point", "coordinates": [31.467264, -26.533676]}}, {"type": "Feature", "properties": {"NAME": "Angola"}, "geometry": {"type": "Point", "coordinates": [17.984249, -12.182762]}}, {"type": "Feature", "properties": {"NAME": "Burundi"}, "geometry": {"type": "Point", "coordinates": [29.917086, -3.332836]}}, {"type": "Feature", "properties": {"NAME": "Israel"}, "geometry": {"type": "Point", "coordinates": [34.847915, 30.911148]}}, {"type": "Feature", "properties": {"NAME": "Lebanon"}, "geometry": {"type": "Point", "coordinates": [35.992892, 34.133368]}}, {"type": "Feature", "properties": {"NAME": "Madagascar"}, "geometry": {"type": "Point", "coordinates": [46.704241, -18.628288]}}, {"type": "Feature", "properties": {"NAME": "Palestine"}, "geometry": {"type": "Point", "coordinates": [35.291341, 32.047431]}}, {"type": "Feature", "properties": {"NAME": "Gambia"}, "geometry": {"type": "Point", "coordinates": [-14.998318, 13.641721]}}, {"type": "Feature", "properties": {"NAME": "Tunisia"}, "geometry": {"type": "Point", "coordinates": [9.007881, 33.687263]}}, {"type": "Feature", "properties": {"NAME": "Algeria"}, "geometry": {"type": "Point", "coordinates": [2.808241, 27.397406]}}, {"type": "Feature", "properties": {"NAME": "Jordan"}, "geometry": {"type": "Point", "coordinates": [36.375991, 30.805025]}}, {"type": "Feature", "properties": {"NAME": "United Arab Emirates"}, "geometry": {"type": "Point", "coordinates": [54.547256, 23.466285]}}, {"type": "Feature", "properties": {"NAME": "Qatar"}, "geometry": {"type": "Point", "coordinates": [51.143509, 25.237383]}}, {"type": "Feature", "properties": {"NAME": "Kuwait"}, "geometry": {"type": "Point", "coordinates": [47.313999, 29.413628]}}, {"type": "Feature", "properties": {"NAME": "Iraq"}, "geometry": {"type": "Point", "coordinates": [43.26181, 33.09403]}}, {"type": "Feature", "properties": {"NAME": "Oman"}, "geometry": {"type": "Point", "coordinates": [57.336553, 22.120427]}}, {"type": "Feature", "properties": {"NAME": "Vanuatu"}, "geometry": {"type": "Point", "coordinates": [166.908762, -15.37153]}}, {"type": "Feature", "properties": {"NAME": "Cambodia"}, "geometry": {"type": "Point", "coordinates": [104.50487, 12.647584]}}, {"type": "Feature", "properties": {"NAME": "Thailand"}, "geometry": {"type": "Point", "coordinates": [101.073198, 15.45974]}}, {"type": "Feature", "properties": {"NAME": "Laos"}, "geometry": {"type": "Point", "coordinates": [102.533912, 19.431821]}}, {"type": "Feature", "properties": {"NAME": "Myanmar"}, "geometry": {"type": "Point", "coordinates": [95.804497, 21.573855]}}, {"type": "Feature", "properties": {"NAME": "Vietnam"}, "geometry": {"type": "Point", "coordinates": [105.387292, 21.715416]}}, {"type": "Feature", "properties": {"NAME": "North Korea"}, "geometry": {"type": "Point", "coordinates": [126.444516, 39.885252]}}, {"type": "Feature", "properties": {"NAME": "South Korea"}, "geometry": {"type": "Point", "coordinates": [128.129504, 36.384924]}}, {"type": "Feature", "properties": {"NAME": "Mongolia"}, "geometry": {"type": "Point", "coordinates": [104.150405, 45.997488]}}, {"type": "Feature", "properties": {"NAME": "India"}, "geometry": {"type": "Point", "coordinates": [79.358105, 22.686852]}}, {"type": "Feature", "properties": {"NAME": "Bangladesh"}, "geometry": {"type": "Point", "coordinates": [89.684963, 24.214956]}}, {"type": "Feature", "properties": {"NAME": "Bhutan"}, "geometry": {"type": "Point", "coordinates": [90.040294, 27.536685]}}, {"type": "Feature", "properties": {"NAME": "Nepal"}, "geometry": {"type": "Point", "coordinates": [83.639914, 28.297925]}}, {"type": "Feature", "properties": {"NAME": "Pakistan"}, "geometry": {"type": "Point", "coordinates": [68.545632, 29.328389]}}, {"type": "Feature", "properties": {"NAME": "Afghanistan"}, "geometry": {"type": "Point", "coordinates": [66.496586, 34.164262]}}, {"type": "Feature", "properties": {"NAME": "Tajikistan"}, "geometry": {"type": "Point", "coordinates": [72.587276, 38.199835]}}, {"type": "Feature", "properties": {"NAME": "Kyrgyzstan"}, "geometry": {"type": "Point", "coordinates": [74.532637, 41.66854]}}, {"type": "Feature", "properties": {"NAME": "Turkmenistan"}, "geometry": {"type": "Point", "coordinates": [58.676647, 39.855246]}}, {"type": "Feature", "properties": {"NAME": "Iran"}, "geometry": {"type": "Point", "coordinates": [54.931495, 32.166225]}}, {"type": "Feature", "properties": {"NAME": "Syria"}, "geometry": {"type": "Point", "coordinates": [38.277783, 35.006636]}}, {"type": "Feature", "properties": {"NAME": "Armenia"}, "geometry": {"type": "Point", "coordinates": [44.800564, 40.459077]}}, {"type": "Feature", "properties": {"NAME": "Sweden"}, "geometry": {"type": "Point", "coordinates": [19.01705, 65.85918]}}, {"type": "Feature", "properties": {"NAME": "Belarus"}, "geometry": {"type": "Point", "coordinates": [28.417701, 53.821888]}}, {"type": "Feature", "properties": {"NAME": "Ukraine"}, "geometry": {"type": "Point", "coordinates": [32.140865, 49.724739]}}, {"type": "Feature", "properties": {"NAME": "Poland"}, "geometry": {"type": "Point", "coordinates": [19.490468, 51.990316]}}, {"type": "Feature", "properties": {"NAME": "Austria"}, "geometry": {"type": "Point", "coordinates": [14.130515, 47.518859]}}, {"type": "Feature", "properties": {"NAME": "Hungary"}, "geometry": {"type": "Point", "coordinates": [19.447867, 47.086841]}}, {"type": "Feature", "properties": {"NAME": "Moldova"}, "geometry": {"type": "Point", "coordinates": [28.487904, 47.434999]}}, {"type": "Feature", "properties": {"NAME": "Romania"}, "geometry": {"type": "Point", "coordinates": [24.972624, 45.733237]}}, {"type": "Feature", "properties": {"NAME": "Lithuania"}, "geometry": {"type": "Point", "coordinates": [24.089932, 55.103703]}}, {"type": "Feature", "properties": {"NAME": "Latvia"}, "geometry": {"type": "Point", "coordinates": [25.458723, 57.066872]}}, {"type": "Feature", "properties": {"NAME": "Estonia"}, "geometry": {"type": "Point", "coordinates": [25.867126, 58.724865]}}, {"type": "Feature", "properties": {"NAME": "Germany"}, "geometry": {"type": "Point", "coordinates": [9.678348, 50.961733]}}, {"type": "Feature", "properties": {"NAME": "Bulgaria"}, "geometry": {"type": "Point", "coordinates": [25.15709, 42.508785]}}, {"type": "Feature", "properties": {"NAME": "Greece"}, "geometry": {"type": "Point", "coordinates": [21.72568, 39.492763]}}, {"type": "Feature", "properties": {"NAME": "Turkey"}, "geometry": {"type": "Point", "coordinates": [34.508268, 39.345388]}}, {"type": "Feature", "properties": {"NAME": "Albania"}, "geometry": {"type": "Point", "coordinates": [20.11384, 40.654855]}}, {"type": "Feature", "properties": {"NAME": "Croatia"}, "geometry": {"type": "Point", "coordinates": [16.37241, 45.805799]}}, {"type": "Feature", "properties": {"NAME": "Switzerland"}, "geometry": {"type": "Point", "coordinates": [7.463965, 46.719114]}}, {"type": "Feature", "properties": {"NAME": "Luxembourg"}, "geometry": {"type": "Point", "coordinates": [6.07762, 49.733732]}}, {"type": "Feature", "properties": {"NAME": "Belgium"}, "geometry": {"type": "Point", "coordinates": [4.800448, 50.785392]}}, {"type": "Feature", "properties": {"NAME": "Netherlands"}, "geometry": {"type": "Point", "coordinates": [5.61144, 52.422211]}}, {"type": "Feature", "properties": {"NAME": "Portugal"}, "geometry": {"type": "Point", "coordinates": [-8.271754, 39.606675]}}, {"type": "Feature", "properties": {"NAME": "Spain"}, "geometry": {"type": "Point", "coordinates": [-3.464718, 40.090953]}}, {"type": "Feature", "properties": {"NAME": "Ireland"}, "geometry": {"type": "Point", "coordinates": [-7.798588, 53.078726]}}, {"type": "Feature", "properties": {"NAME": "New Caledonia"}, "geometry": {"type": "Point", "coordinates": [165.084004, -21.064697]}}, {"type": "Feature", "properties": {"NAME": "Solomon Is."}, "geometry": {"type": "Point", "coordinates": [159.170468, -8.029548]}}, {"type": "Feature", "properties": {"NAME": "New Zealand"}, "geometry": {"type": "Point", "coordinates": [172.787, -39.759]}}, {"type": "Feature", "properties": {"NAME": "Australia"}, "geometry": {"type": "Point", "coordinates": [134.04972, -24.129522]}}, {"type": "Feature", "properties": {"NAME": "Sri Lanka"}, "geometry": {"type": "Point", "coordinates": [80.704823, 7.581097]}}, {"type": "Feature", "properties": {"NAME": "China"}, "geometry": {"type": "Point", "coordinates": [106.337289, 32.498178]}}, {"type": "Feature", "properties": {"NAME": "Taiwan"}, "geometry": {"type": "Point", "coordinates": [120.868204, 23.652408]}}, {"type": "Feature", "properties": {"NAME": "Italy"}, "geometry": {"type": "Point", "coordinates": [11.076907, 44.732482]}}, {"type": "Feature", "properties": {"NAME": "Denmark"}, "geometry": {"type": "Point", "coordinates": [9.018163, 55.966965]}}, {"type": "Feature", "properties": {"NAME": "United Kingdom"}, "geometry": {"type": "Point", "coordinates": [-2.116346, 54.402739]}}, {"type": "Feature", "properties": {"NAME": "Iceland"}, "geometry": {"type": "Point", "coordinates": [-18.673711, 64.779286]}}, {"type": "Feature", "properties": {"NAME": "Azerbaijan"}, "geometry": {"type": "Point", "coordinates": [47.210994, 40.402387]}}, {"type": "Feature", "properties": {"NAME": "Georgia"}, "geometry": {"type": "Point", "coordinates": [43.735724, 41.870087]}}, {"type": "Feature", "properties": {"NAME": "Philippines"}, "geometry": {"type": "Point", "coordinates": [122.465, 11.198]}}, {"type": "Feature", "properties": {"NAME": "Malaysia"}, "geometry": {"type": "Point", "coordinates": [113.83708, 2.528667]}}, {"type": "Feature", "properties": {"NAME": "Brunei"}, "geometry": {"type": "Point", "coordinates": [114.551943, 4.448298]}}, {"type": "Feature", "properties": {"NAME": "Slovenia"}, "geometry": {"type": "Point", "coordinates": [14.915312, 46.06076]}}, {"type": "Feature", "properties": {"NAME": "Finland"}, "geometry": {"type": "Point", "coordinates": [27.276449, 63.252361]}}, {"type": "Feature", "properties": {"NAME": "Slovakia"}, "geometry": {"type": "Point", "coordinates": [19.049868, 48.734044]}}, {"type": "Feature", "properties": {"NAME": "Czechia"}, "geometry": {"type": "Point", "coordinates": [15.377555, 49.882364]}}, {"type": "Feature", "properties": {"NAME": "Eritrea"}, "geometry": {"type": "Point", "coordinates": [38.285566, 15.787401]}}, {"type": "Feature", "properties": {"NAME": "Japan"}, "geometry": {"type": "Point", "coordinates": [138.44217, 36.142538]}}, {"type": "Feature", "properties": {"NAME": "Paraguay"}, "geometry": {"type": "Point", "coordinates": [-60.146394, -21.674509]}}, {"type": "Feature", "properties": {"NAME": "Yemen"}, "geometry": {"type": "Point", "coordinates": [45.874383, 15.328226]}}, {"type": "Feature", "properties": {"NAME": "Saudi Arabia"}, "geometry": {"type": "Point", "coordinates": [44.6996, 23.806908]}}, {"type": "Feature", "properties": {"NAME": "Antarctica"}, "geometry": {"type": "Point", "coordinates": [35.885455, -79.843222]}}, {"type": "Feature", "properties": {"NAME": "N. Cyprus"}, "geometry": {"type": "Point", "coordinates": [33.692434, 35.216071]}}, {"type": "Feature", "properties": {"NAME": "Cyprus"}, "geometry": {"type": "Point", "coordinates": [33.084182, 34.913329]}}, {"type": "Feature", "properties": {"NAME": "Morocco"}, "geometry": {"type": "Point", "coordinates": [-7.187296, 31.650723]}}, {"type": "Feature", "properties": {"NAME": "Egypt"}, "geometry": {"type": "Point", "coordinates": [29.445837, 26.186173]}}, {"type": "Feature", "properties": {"NAME": "Libya"}, "geometry": {"type": "Point", "coordinates": [18.011015, 26.638944]}}, {"type": "Feature", "properties": {"NAME": "Ethiopia"}, "geometry": {"type": "Point", "coordinates": [39.0886, 8.032795]}}, {"type": "Feature", "properties": {"NAME": "Djibouti"}, "geometry": {"type": "Point", "coordinates": [42.498825, 11.976343]}}, {"type": "Feature", "properties": {"NAME": "Somaliland"}, "geometry": {"type": "Point", "coordinates": [46.731595, 9.443889]}}, {"type": "Feature", "properties": {"NAME": "Uganda"}, "geometry": {"type": "Point", "coordinates": [32.948555, 1.972589]}}, {"type": "Feature", "properties": {"NAME": "Rwanda"}, "geometry": {"type": "Point", "coordinates": [30.103894, -1.897196]}}, {"type": "Feature", "properties": {"NAME": "Bosnia and Herz."}, "geometry": {"type": "Point", "coordinates": [18.06841, 44.091051]}}, {"type": "Feature", "properties": {"NAME": "North Macedonia"}, "geometry": {"type": "Point", "coordinates": [21.555839, 41.558223]}}, {"type": "Feature", "properties": {"NAME": "Serbia"}, "geometry": {"type": "Point", "coordinates": [20.787989, 44.189919]}}, {"type": "Feature", "properties": {"NAME": "Montenegro"}, "geometry": {"type": "Point", "coordinates": [19.143727, 42.803101]}}, {"type": "Feature", "properties": {"NAME": "Kosovo"}, "geometry": {"type": "Point", "coordinates": [20.860719, 42.593587]}}, {"type": "Feature", "properties": {"NAME": "Trinidad and Tobago"}, "geometry": {"type": "Point", "coordinates": [-60.9184, 10.9989]}}, {"type": "Feature", "properties": {"NAME": "S. Sudan"}, "geometry": {"type": "Point", "coordinates": [30.390151, 7.230477]}}]}